{
    "links": {
        "self": "http://www.neowsapp.com/rest/v1/neo/3825038?api_key=iIulBulltgU6a56xZRHN4H3l9WmuAYTsLGpBGhQ2"
    },
    "id": "3825038",
    "neo_reference_id": "3825038",
    "name": "(2018 KY2)",
    "designation": "2018 KY2",
    "nasa_jpl_url": "http://ssd.jpl.nasa.gov/sbdb.cgi?sstr=3825038",
    "absolute_magnitude_h": 27.2,
    "estimated_diameter": {
        "kilometers": {
            "estimated_diameter_min": 0.0096506147,
            "estimated_diameter_max": 0.0215794305
        },
        "meters": {
            "estimated_diameter_min": 9.6506146958,
            "estimated_diameter_max": 21.5794304844
        },
        "miles": {
            "estimated_diameter_min": 0.0059966121,
            "estimated_diameter_max": 0.0134088323
        },
        "feet": {
            "estimated_diameter_min": 31.6621227185,
            "estimated_diameter_max": 70.7986587106
        }
    },
    "is_potentially_hazardous_asteroid": false,
    "close_approach_data": [
        {
            "close_approach_date": "2018-05-25",
            "close_approach_date_full": "2018-May-25 21:32",
            "epoch_date_close_approach": 1527283920000,
            "relative_velocity": {
                "kilometers_per_second": "12.4721187729",
                "kilometers_per_hour": "44899.6275825728",
                "miles_per_hour": "27898.8824831826"
            },
            "miss_distance": {
                "astronomical": "0.0029466909",
                "lunar": "1.1462627601",
                "kilometers": "440818.682188383",
                "miles": "273912.0276423654"
            },
            "orbiting_body": "Moon"
        },
        {
            "close_approach_date": "2018-05-26",
            "close_approach_date_full": "2018-May-26 05:25",
            "epoch_date_close_approach": 1527312300000,
            "relative_velocity": {
                "kilometers_per_second": "12.1799732026",
                "kilometers_per_hour": "43847.9035294817",
                "miles_per_hour": "27245.3820569715"
            },
            "miss_distance": {
                "astronomical": "0.0020023558",
                "lunar": "0.7789164062",
                "kilometers": "299548.162662146",
                "miles": "186130.5972877748"
            },
            "orbiting_body": "Earth"
        }
    ],
    "orbital_data": {
        "orbit_id": "2",
        "orbit_determination_date": "2018-05-30 06:22:30",
        "first_observation_date": "2018-05-21",
        "last_observation_date": "2018-05-25",
        "data_arc_in_days": 4,
        "observations_used": 20,
        "orbit_uncertainty": "7",
        "minimum_orbit_intersection": ".00167834",
        "jupiter_tisserand_invariant": "3.604",
        "epoch_osculation": "2459000.5",
        "eccentricity": ".5494103130573108",
        "semi_major_axis": "2.024783934521938",
        "inclination": "7.414427807525551",
        "ascending_node_longitude": "65.47416892575957",
        "orbital_period": "1052.365146847555",
        "perihelion_distance": ".9123467591828265",
        "perihelion_argument": "223.1463040114977",
        "aphelion_distance": "3.137221109861049",
        "perihelion_time": "2459350.765661865621",
        "mean_anomaly": "240.1788156426948",
        "mean_motion": ".3420865857049801",
        "equinox": "J2000",
        "orbit_class": {
            "orbit_class_type": "APO",
            "orbit_class_description": "Near-Earth asteroid orbits which cross the Earth’s orbit similar to that of 1862 Apollo",
            "orbit_class_range": "a (semi-major axis) > 1.0 AU; q (perihelion) < 1.017 AU"
        }
    },
    "is_sentry_object": false
}